{"fetched_at":"2026-04-16T06:04:01Z","count":5425,"tles":[{"name":"TRANSPORTER-16 OBJECT BE","line1":"1 68468U 26067BE  26104.14890293  .00005410  00000+0  27964-3 0  9992","line2":"2 68468  97.4508  63.5497 0004762 285.6118  74.4589 15.16676952  2222","category":"Other"}]}