{
  "norad_id": 68468,
  "name": "TRANSPORTER-16 OBJECT BE",
  "history": [
    {
      "epoch": "2026-04-14T03:34:25.213152Z",
      "apogee_km": 519.1751054179604,
      "perigee_km": 512.6092320376629,
      "latitude_deg": -3.974766622625377e-05,
      "longitude_deg": 167.61517151103715,
      "height_km": 518.0983587325649,
      "semi_major_axis_km": 6894.029168727811,
      "eccentricity": 0.0004762,
      "inclination_deg": 97.4508,
      "raan_deg": 63.5497,
      "arg_perigee_deg": 285.6118,
      "mean_anomaly_deg": 74.4589,
      "mean_motion_rev_day": 15.16676952
    }
  ]
}